EYESAT A (AO-27)        
1 22825U 93061C   26137.51295794  .00000058  00000+0  39177-4 0  9992
2 22825  98.6890 204.9354 0008322 182.5736 177.5405 14.30933165702615
ITAMSAT (IO-26)         
1 22826U 93061D   26137.43160273  .00000062  00000+0  40317-4 0  9990
2 22826  98.6839 204.7683 0009174 166.8550 193.2874 14.31359156702918
RADIO ROSTO (RS15)      
1 23439U 94085A   26137.51824831 -.00000049  00000+0 -18654-3 0  9999
2 23439  64.8189 352.8183 0155094   9.4998 350.8802 11.27583614292447
JAS-2 (FO-29)           
1 24278U 96046B   26137.55370275  .00000009  00000+0  44138-4 0  9993
2 24278  98.5271 350.6170 0349946 175.7759 184.6472 13.53272614469022
FORTE                   
1 24920U 97047A   26137.55321570  .00000103  00000+0  64763-4 0  9994
2 24920  69.9528  83.2131 0023862 314.8119  45.1062 14.27931415494310
TECHSAT 1B (GO-32)      
1 25397U 98043D   26137.43837532  .00000009  00000+0  24256-4 0  9995
2 25397  99.0065 129.4232 0000761   2.9951 357.1232 14.24421894446950
ISS (ZARYA)             
1 25544U 98067A   26137.35937137  .00004742  00000+0  93391-4 0  9992
2 25544  51.6321  92.7073 0007563  68.1412 292.0380 15.49241279566972
IMAGE                   
1 26113U 00017A   26136.85091226  .00000032  00000+0  11883-1 0  9998
2 26113  94.2039 314.9580 7455478 291.3690   8.2558  1.68665369160973
CLUSTER II-FM7 (SAMBA)  
1 26410U 00041A   26139.13281146  .00006663  00000+0  00000+0 0  9994
2 26410 149.8437  45.8867 9018559 262.6588   0.3747  0.44883482 20186
CLUSTER II-FM8 (TANGO)  
1 26464U 00045B   26136.89704581  .00003719  00000+0  00000+0 0  9999
2 26464 150.0886  46.4719 9022759 263.0807   0.4723  0.44400393 20154
ODIN                    
1 26702U 01007A   26136.94450696  .00098840  00000+0  93021-3 0  9992
2 26702  97.3908 176.0987 0003086 185.9446 174.1778 15.66789909384490
OMNI-M1                 
1 26857U 01026A   26136.37865379 -.00000011  00000+0  00000+0 0  9994
2 26857  44.8421 252.5957 0015297  48.1988 311.9568  3.92401279204321
PCSAT (NO-44)           
1 26931U 01043C   26137.49705550  .00000059  00000+0  52934-4 0  9993
2 26931  67.0509 323.6506 0006230 263.6756  96.3636 14.31943232286057
PROBA-1                 
1 26958U 01049B   26137.60192360  .00001152  00000+0  78421-4 0  9994
2 26958  97.9606 145.0688 0053689 225.0796 134.6069 15.07371796339014
SAUDISAT 1C (SO-50)     
1 27607U 02058C   26137.47285093  .00000572  00000+0  85437-4 0  9998
2 27607  64.5521 224.0087 0075631 268.0909  91.1534 14.82976948259902
CORIOLIS                
1 27640U 03001A   26137.47434721  .00000061  00000+0  49442-4 0  9997
2 27640  98.7135 144.8277 0012967 304.2992  55.6956 14.19935859209866
CUTE-1 (CO-55)          
1 27844U 03031E   26137.47907677  .00000178  00000+0  95961-4 0  9997
2 27844  98.6745 146.4240 0008282 275.4174  84.6060 14.24315278187307
CUBESAT XI-IV (CO-57)   
1 27848U 03031J   26136.96017615  .00000150  00000+0  85081-4 0  9990
2 27848  98.6778 145.6494 0008323 298.5397  61.4943 14.23602877186932
MOZHAETS 4 (RS22)       
1 27939U 03042A   26137.66531786  .00000351  00000+0  62368-4 0  9997
2 27939  98.3462 321.1640 0011553  12.3494 114.0477 14.73408289211058
