OBJECT_NAME,OBJECT_ID,EPOCH,MEAN_MOTION,ECCENTRICITY,INCLINATION,RA_OF_ASC_NODE,ARG_OF_PERICENTER,MEAN_ANOMALY,EPHEMERIS_TYPE,CLASSIFICATION_TYPE,NORAD_CAT_ID,ELEMENT_SET_NO,REV_AT_EPOCH,BSTAR,MEAN_MOTION_DOT,MEAN_MOTION_DDOT
EYESAT A (AO-27),1993-061C,2026-05-17T12:18:39.566016,14.30933165,.00083226,98.6890,204.9354,182.5736,177.5405,0,U,22825,999,70261,.39176527E-4,.58E-6,0
ITAMSAT (IO-26),1993-061D,2026-05-17T10:21:30.475872,14.31359156,.00091741,98.6839,204.7683,166.8550,193.2874,0,U,22826,999,70291,.40316727E-4,.62E-6,0
RADIO ROSTO (RS15),1994-085A,2026-05-17T12:26:16.653984,11.27583614,.01550949,64.8189,352.8183,9.4998,350.8802,0,U,23439,999,29244,-.18654273E-3,-.49E-6,0
JAS-2 (FO-29),1996-046B,2026-05-17T13:17:19.917600,13.53272614,.0349946,98.5271,350.6170,175.7759,184.6472,0,U,24278,999,46902,.44138472E-4,.9E-7,0
FORTE,1997-047A,2026-05-17T13:16:37.836480,14.27931415,.00238622,69.9528,83.2131,314.8119,45.1062,0,U,24920,999,49431,.64763498E-4,.103E-5,0
TECHSAT 1B (GO-32),1998-043D,2026-05-17T10:31:15.627648,14.24421894,.00007613,99.0065,129.4232,2.9951,357.1232,0,U,25397,999,44695,.24255987E-4,.9E-7,0
ISS (ZARYA),1998-067A,2026-05-17T08:37:29.686368,15.49241279,.0007563,51.6321,92.7073,68.1412,292.0380,0,U,25544,999,56697,.93391409E-4,.4742E-4,0
IMAGE,2000-017A,2026-05-16T20:25:18.819264,1.68665369,.74554789,94.2039,314.9580,291.3690,8.2558,0,U,26113,999,16097,.11882681E-1,.32E-6,0
CLUSTER II-FM7 (SAMBA),2000-041A,2026-05-19T03:11:14.910144,0.44883482,.90185594,149.8437,45.8867,262.6588,0.3747,0,U,26410,999,2018,0,.6663E-4,0
CLUSTER II-FM8 (TANGO),2000-045B,2026-05-16T21:31:44.757984,0.44400393,.90227595,150.0886,46.4719,263.0807,0.4723,0,U,26464,999,2015,0,.3719E-4,0
ODIN,2001-007A,2026-05-16T22:40:05.401344,15.66789909,.00030861,97.3908,176.0987,185.9446,174.1778,0,U,26702,999,38449,.93021297E-3,.9884E-3,0
OMNI-M1,2001-026A,2026-05-16T09:05:15.687456,3.92401279,.00152975,44.8421,252.5957,48.1988,311.9568,0,U,26857,999,20432,0,-.11E-6,0
PCSAT (NO-44),2001-043C,2026-05-17T11:55:45.595200,14.31943232,.00062303,67.0509,323.6506,263.6756,96.3636,0,U,26931,999,28605,.52933501E-4,.59E-6,0
PROBA-1,2001-049B,2026-05-17T14:26:46.199040,15.07371796,.00536893,97.9606,145.0688,225.0796,134.6069,0,U,26958,999,33901,.78420722E-4,.1152E-4,0
SAUDISAT 1C (SO-50),2002-058C,2026-05-17T11:20:54.320352,14.82976948,.00756314,64.5521,224.0087,268.0909,91.1534,0,U,27607,999,25990,.85436672E-4,.572E-5,0
CORIOLIS,2003-001A,2026-05-17T11:23:03.598944,14.19935859,.00129677,98.7135,144.8277,304.2992,55.6956,0,U,27640,999,20986,.49442371E-4,.61E-6,0
CUTE-1 (CO-55),2003-031E,2026-05-17T11:29:52.232928,14.24315278,.00082829,98.6745,146.4240,275.4174,84.6060,0,U,27844,999,18730,.95960922E-4,.178E-5,0
CUBESAT XI-IV (CO-57),2003-031J,2026-05-16T23:02:39.219360,14.23602877,.0008323,98.6778,145.6494,298.5397,61.4943,0,U,27848,999,18693,.85081E-4,.15E-5,0
MOZHAETS 4 (RS22),2003-042A,2026-05-17T15:58:03.463104,14.73408289,.0011553,98.3462,321.1640,12.3494,114.0477,0,U,27939,999,21105,.62367568E-4,.351E-5,0
